{
  "type": "FeatureCollection",
  "features": [
    {
      "type": "Feature",
      "properties": {
        "norad_id": 32197,
        "name": "FENGYUN 1C DEB",
        "group": "fengyun-1c-debris",
        "lat": 16.88742749010862,
        "lon": -116.61595303728582,
        "alt_km": 838.7951882883917,
        "timestamp": "2025-12-03T06:58:43.524011+00:00",
        "meta_object_name": "FENGYUN 1C DEB",
        "meta_object_id": "1999-025CUT",
        "meta_epoch": "2025-11-30T12:41:42.301248",
        "meta_mean_motion": 14.32612236,
        "meta_eccentricity": 0.01612316,
        "meta_inclination": 98.9001,
        "meta_ra_of_asc_node": 243.2747,
        "meta_arg_of_pericenter": 265.8516,
        "meta_mean_anomaly": 273.9539,
        "meta_ephemeris_type": 0,
        "meta_classification_type": "U",
        "meta_norad_cat_id": 32197,
        "meta_element_set_no": 999,
        "meta_rev_at_epoch": 94248,
        "meta_bstar": 0.00051267033,
        "meta_mean_motion_dot": 1.556e-05,
        "meta_mean_motion_ddot": 0,
        "tle_line1": "1 32197U 99025CUT 25334.52896182  .00001556  00000+0  51267-3 0  9995",
        "tle_line2": "2 32197  98.9001 243.2747 0161231 265.8516 273.9539 14.32612236942482"
      },
      "geometry": {
        "type": "Point",
        "coordinates": [
          -116.61595303728582,
          16.88742749010862
        ]
      }
    },
    {
      "type": "Feature",
      "properties": {
        "norad_id": 32198,
        "name": "FENGYUN 1C DEB",
        "group": "fengyun-1c-debris",
        "lat": 67.09178671498998,
        "lon": -34.80466498717313,
        "alt_km": 917.1834625561542,
        "timestamp": "2025-12-03T06:58:43.524022+00:00",
        "meta_object_name": "FENGYUN 1C DEB",
        "meta_object_id": "1999-025CUU",
        "meta_epoch": "2025-11-26T15:55:14.672064",
        "meta_mean_motion": 14.08693486,
        "meta_eccentricity": 0.00946342,
        "meta_inclination": 98.344,
        "meta_ra_of_asc_node": 118.7379,
        "meta_arg_of_pericenter": 338.8779,
        "meta_mean_anomaly": 20.8495,
        "meta_ephemeris_type": 0,
        "meta_classification_type": "U",
        "meta_norad_cat_id": 32198,
        "meta_element_set_no": 999,
        "meta_rev_at_epoch": 56719,
        "meta_bstar": 0.0016262032,
        "meta_mean_motion_dot": 2.879e-05,
        "meta_mean_motion_ddot": 0,
        "tle_line1": "1 32198U 99025CUU 25330.66336426  .00002879  00000+0  16262-2 0  9991",
        "tle_line2": "2 32198  98.3440 118.7379 0094634 338.8779  20.8495 14.08693486567195"
      },
      "geometry": {
        "type": "Point",
        "coordinates": [
          -34.80466498717313,
          67.09178671498998
        ]
      }
    },
    {
      "type": "Feature",
      "properties": {
        "norad_id": 32200,
        "name": "FENGYUN 1C DEB",
        "group": "fengyun-1c-debris",
        "lat": 30.62922498708748,
        "lon": -148.3502665767589,
        "alt_km": 866.2425605406843,
        "timestamp": "2025-12-03T06:58:43.524032+00:00",
        "meta_object_name": "FENGYUN 1C DEB",
        "meta_object_id": "1999-025CUW",
        "meta_epoch": "2025-12-01T10:10:20.091360",
        "meta_mean_motion": 14.1562895,
        "meta_eccentricity": 0.00392526,
        "meta_inclination": 98.7925,
        "meta_ra_of_asc_node": 24.5506,
        "meta_arg_of_pericenter": 323.0087,
        "meta_mean_anomaly": 36.8381,
        "meta_ephemeris_type": 0,
        "meta_classification_type": "U",
        "meta_norad_cat_id": 32200,
        "meta_element_set_no": 999,
        "meta_rev_at_epoch": 94203,
        "meta_bstar": 0.0011757529,
        "meta_mean_motion_dot": 2.276e-05,
        "meta_mean_motion_ddot": 0,
        "tle_line1": "1 32200U 99025CUW 25335.42384365  .00002276  00000+0  11758-2 0  9995",
        "tle_line2": "2 32200  98.7925  24.5506 0039252 323.0087  36.8381 14.15628950942033"
      },
      "geometry": {
        "type": "Point",
        "coordinates": [
          -148.3502665767589,
          30.62922498708748
        ]
      }
    },
    {
      "type": "Feature",
      "properties": {
        "norad_id": 32203,
        "name": "FENGYUN 1C DEB",
        "group": "fengyun-1c-debris",
        "lat": 31.72868169559563,
        "lon": -135.2148303795146,
        "alt_km": 449.89343390627346,
        "timestamp": "2025-12-03T06:58:43.524043+00:00",
        "meta_object_name": "FENGYUN 1C DEB",
        "meta_object_id": "1999-025CUZ",
        "meta_epoch": "2025-12-02T04:19:15.247776",
        "meta_mean_motion": 15.39555388,
        "meta_eccentricity": 0.0147192,
        "meta_inclination": 97.0184,
        "meta_ra_of_asc_node": 228.0885,
        "meta_arg_of_pericenter": 129.5153,
        "meta_mean_anomaly": 231.9214,
        "meta_ephemeris_type": 0,
        "meta_classification_type": "U",
        "meta_norad_cat_id": 32203,
        "meta_element_set_no": 999,
        "meta_rev_at_epoch": 74935,
        "meta_bstar": 0.00075988,
        "meta_mean_motion_dot": 0.00043943,
        "meta_mean_motion_ddot": 0,
        "tle_line1": "1 32203U 99025CUZ 25336.18003759  .00043943  00000+0  75988-3 0  9999",
        "tle_line2": "2 32203  97.0184 228.0885 0147192 129.5153 231.9214 15.39555388749356"
      },
      "geometry": {
        "type": "Point",
        "coordinates": [
          -135.2148303795146,
          31.72868169559563
        ]
      }
    },
    {
      "type": "Feature",
      "properties": {
        "norad_id": 32205,
        "name": "FENGYUN 1C DEB",
        "group": "fengyun-1c-debris",
        "lat": -2.068877250302256,
        "lon": 161.1503612257623,
        "alt_km": 854.9017263903334,
        "timestamp": "2025-12-03T06:58:43.524053+00:00",
        "meta_object_name": "FENGYUN 1C DEB",
        "meta_object_id": "1999-025CVB",
        "meta_epoch": "2025-12-01T23:40:56.544384",
        "meta_mean_motion": 14.1389981,
        "meta_eccentricity": 0.00103693,
        "meta_inclination": 98.6787,
        "meta_ra_of_asc_node": 340.2006,
        "meta_arg_of_pericenter": 324.9704,
        "meta_mean_anomaly": 63.3095,
        "meta_ephemeris_type": 0,
        "meta_classification_type": "U",
        "meta_norad_cat_id": 32205,
        "meta_element_set_no": 999,
        "meta_rev_at_epoch": 94346,
        "meta_bstar": 0.00020548831,
        "meta_mean_motion_dot": 3.47e-06,
        "meta_mean_motion_ddot": 0,
        "tle_line1": "1 32205U 99025CVB 25335.98676556  .00000347  00000+0  20549-3 0  9993",
        "tle_line2": "2 32205  98.6787 340.2006 0010369 324.9704  63.3095 14.13899810943468"
      },
      "geometry": {
        "type": "Point",
        "coordinates": [
          161.1503612257623,
          -2.068877250302256
        ]
      }
    },
    {
      "type": "Feature",
      "properties": {
        "norad_id": 32209,
        "name": "FENGYUN 1C DEB",
        "group": "fengyun-1c-debris",
        "lat": -69.9139472826964,
        "lon": 78.24940775167555,
        "alt_km": 1316.760606473681,
        "timestamp": "2025-12-03T06:58:43.524063+00:00",
        "meta_object_name": "FENGYUN 1C DEB",
        "meta_object_id": "1999-025CVF",
        "meta_epoch": "2025-12-01T19:52:12.211968",
        "meta_mean_motion": 13.47100658,
        "meta_eccentricity": 0.03328885,
        "meta_inclination": 99.4197,
        "meta_ra_of_asc_node": 283.8685,
        "meta_arg_of_pericenter": 52.3889,
        "meta_mean_anomaly": 310.6974,
        "meta_ephemeris_type": 0,
        "meta_classification_type": "U",
        "meta_norad_cat_id": 32209,
        "meta_element_set_no": 999,
        "meta_rev_at_epoch": 89829,
        "meta_bstar": 0.002968545,
        "meta_mean_motion_dot": 2.491e-05,
        "meta_mean_motion_ddot": 0,
        "tle_line1": "1 32209U 99025CVF 25335.82791912  .00002491  00000+0  29685-2 0  9995",
        "tle_line2": "2 32209  99.4197 283.8685 0332888  52.3889 310.6974 13.47100658898295"
      },
      "geometry": {
        "type": "Point",
        "coordinates": [
          78.24940775167555,
          -69.9139472826964
        ]
      }
    },
    {
      "type": "Feature",
      "properties": {
        "norad_id": 32212,
        "name": "FENGYUN 1C DEB",
        "group": "fengyun-1c-debris",
        "lat": 19.054121391041104,
        "lon": -103.78886542221385,
        "alt_km": 699.9934091675423,
        "timestamp": "2025-12-03T06:58:43.524073+00:00",
        "meta_object_name": "FENGYUN 1C DEB",
        "meta_object_id": "1999-025CVJ",
        "meta_epoch": "2025-11-25T13:14:33.862848",
        "meta_mean_motion": 14.40232074,
        "meta_eccentricity": 0.01375663,
        "meta_inclination": 99.574,
        "meta_ra_of_asc_node": 64.2206,
        "meta_arg_of_pericenter": 128.3819,
        "meta_mean_anomaly": 247.3372,
        "meta_ephemeris_type": 0,
        "meta_classification_type": "U",
        "meta_norad_cat_id": 32212,
        "meta_element_set_no": 999,
        "meta_rev_at_epoch": 95814,
        "meta_bstar": 0.00072151174,
        "meta_mean_motion_dot": 2.496e-05,
        "meta_mean_motion_ddot": 0,
        "tle_line1": "1 32212U 99025CVJ 25329.55178082  .00002496  00000+0  72151-3 0  9991",
        "tle_line2": "2 32212  99.5740  64.2206 0137566 128.3819 247.3372 14.40232074958148"
      },
      "geometry": {
        "type": "Point",
        "coordinates": [
          -103.78886542221385,
          19.054121391041104
        ]
      }
    }
  ]
}